{
  "type": "FeatureCollection",
  "features": [
    {
      "type": "Feature",
      "properties": {
        "norad_id": 30495,
        "name": "FENGYUN 1C DEB",
        "group": "fengyun-1c-debris",
        "lat": -10.795472532586672,
        "lon": 81.16476340925475,
        "alt_km": 1247.800868641577,
        "timestamp": "2025-12-15T15:53:20.128671+00:00",
        "meta_object_name": "FENGYUN 1C DEB",
        "meta_object_id": "1999-025AHH",
        "meta_epoch": "2025-12-14T04:42:05.842080",
        "meta_mean_motion": 12.94393656,
        "meta_eccentricity": 0.05971501,
        "meta_inclination": 102.2603,
        "meta_ra_of_asc_node": 77.1465,
        "meta_arg_of_pericenter": 263.6815,
        "meta_mean_anomaly": 89.5981,
        "meta_ephemeris_type": 0,
        "meta_classification_type": "U",
        "meta_norad_cat_id": 30495,
        "meta_element_set_no": 999,
        "meta_rev_at_epoch": 88692,
        "meta_bstar": 0.0037984689,
        "meta_mean_motion_dot": 2.324e-05,
        "meta_mean_motion_ddot": 0,
        "tle_line1": "1 30495U 99025AHH 25348.19590095  .00002324  00000+0  37985-2 0  9990",
        "tle_line2": "2 30495 102.2603  77.1465 0597150 263.6815  89.5981 12.94393656886926"
      },
      "geometry": {
        "type": "Point",
        "coordinates": [
          81.16476340925475,
          -10.795472532586672
        ]
      }
    },
    {
      "type": "Feature",
      "properties": {
        "norad_id": 30496,
        "name": "FENGYUN 1C DEB",
        "group": "fengyun-1c-debris",
        "lat": 22.82550114652096,
        "lon": 79.57851814708131,
        "alt_km": 550.2195587527867,
        "timestamp": "2025-12-15T15:53:20.128680+00:00",
        "meta_object_name": "FENGYUN 1C DEB",
        "meta_object_id": "1999-025AHJ",
        "meta_epoch": "2025-12-14T16:42:12.624480",
        "meta_mean_motion": 14.94294852,
        "meta_eccentricity": 0.01305891,
        "meta_inclination": 98.7832,
        "meta_ra_of_asc_node": 254.7674,
        "meta_arg_of_pericenter": 91.1258,
        "meta_mean_anomaly": 270.4924,
        "meta_ephemeris_type": 0,
        "meta_classification_type": "U",
        "meta_norad_cat_id": 30496,
        "meta_element_set_no": 999,
        "meta_rev_at_epoch": 1173,
        "meta_bstar": 0.00053845953,
        "meta_mean_motion_dot": 6.774e-05,
        "meta_mean_motion_ddot": 0,
        "tle_line1": "1 30496U 99025AHJ 25348.69597945  .00006774  00000+0  53846-3 0  9995",
        "tle_line2": "2 30496  98.7832 254.7674 0130589  91.1258 270.4924 14.94294852 11736"
      },
      "geometry": {
        "type": "Point",
        "coordinates": [
          79.57851814708131,
          22.82550114652096
        ]
      }
    },
    {
      "type": "Feature",
      "properties": {
        "norad_id": 30498,
        "name": "FENGYUN 1C DEB",
        "group": "fengyun-1c-debris",
        "lat": 66.13376108923858,
        "lon": 19.263264476907413,
        "alt_km": 852.3773721905427,
        "timestamp": "2025-12-15T15:53:20.128689+00:00",
        "meta_object_name": "FENGYUN 1C DEB",
        "meta_object_id": "1999-025AHL",
        "meta_epoch": "2025-12-14T14:40:34.554720",
        "meta_mean_motion": 14.06077678,
        "meta_eccentricity": 0.01044581,
        "meta_inclination": 99.238,
        "meta_ra_of_asc_node": 39.7748,
        "meta_arg_of_pericenter": 150.8451,
        "meta_mean_anomaly": 3.5245,
        "meta_ephemeris_type": 0,
        "meta_classification_type": "U",
        "meta_norad_cat_id": 30498,
        "meta_element_set_no": 999,
        "meta_rev_at_epoch": 95795,
        "meta_bstar": 0.0019751286,
        "meta_mean_motion_dot": 3.362e-05,
        "meta_mean_motion_ddot": 0,
        "tle_line1": "1 30498U 99025AHL 25348.61151105  .00003362  00000+0  19751-2 0  9999",
        "tle_line2": "2 30498  99.2380  39.7748 0104458 150.8451   3.5245 14.06077678957951"
      },
      "geometry": {
        "type": "Point",
        "coordinates": [
          19.263264476907413,
          66.13376108923858
        ]
      }
    },
    {
      "type": "Feature",
      "properties": {
        "norad_id": 30500,
        "name": "FENGYUN 1C DEB",
        "group": "fengyun-1c-debris",
        "lat": 49.350123658168826,
        "lon": -88.02262298973191,
        "alt_km": 760.0738131828693,
        "timestamp": "2025-12-15T15:53:20.128700+00:00",
        "meta_object_name": "FENGYUN 1C DEB",
        "meta_object_id": "1999-025AHN",
        "meta_epoch": "2025-12-14T22:41:22.322400",
        "meta_mean_motion": 14.25225057,
        "meta_eccentricity": 0.00645183,
        "meta_inclination": 99.0724,
        "meta_ra_of_asc_node": 80.5118,
        "meta_arg_of_pericenter": 110.059,
        "meta_mean_anomaly": 304.4965,
        "meta_ephemeris_type": 0,
        "meta_classification_type": "U",
        "meta_norad_cat_id": 30500,
        "meta_element_set_no": 999,
        "meta_rev_at_epoch": 96713,
        "meta_bstar": 0.0016745922,
        "meta_mean_motion_dot": 3.978e-05,
        "meta_mean_motion_ddot": 0,
        "tle_line1": "1 30500U 99025AHN 25348.94539725  .00003978  00000+0  16746-2 0  9991",
        "tle_line2": "2 30500  99.0724  80.5118 0064518 110.0590 304.4965 14.25225057967134"
      },
      "geometry": {
        "type": "Point",
        "coordinates": [
          -88.02262298973191,
          49.350123658168826
        ]
      }
    },
    {
      "type": "Feature",
      "properties": {
        "norad_id": 30501,
        "name": "FENGYUN 1C DEB",
        "group": "fengyun-1c-debris",
        "lat": 74.71096997901262,
        "lon": -55.251348592230194,
        "alt_km": 813.0795975944302,
        "timestamp": "2025-12-15T15:53:20.128709+00:00",
        "meta_object_name": "FENGYUN 1C DEB",
        "meta_object_id": "1999-025AHP",
        "meta_epoch": "2025-12-14T22:56:11.092416",
        "meta_mean_motion": 14.25359066,
        "meta_eccentricity": 0.00405852,
        "meta_inclination": 99.0839,
        "meta_ra_of_asc_node": 339.8388,
        "meta_arg_of_pericenter": 196.2976,
        "meta_mean_anomaly": 219.308,
        "meta_ephemeris_type": 0,
        "meta_classification_type": "U",
        "meta_norad_cat_id": 30501,
        "meta_element_set_no": 999,
        "meta_rev_at_epoch": 96951,
        "meta_bstar": 0.0012095646,
        "meta_mean_motion_dot": 2.829e-05,
        "meta_mean_motion_ddot": 0,
        "tle_line1": "1 30501U 99025AHP 25348.95568394  .00002829  00000+0  12096-2 0  9995",
        "tle_line2": "2 30501  99.0839 339.8388 0040585 196.2976 219.3080 14.25359066969517"
      },
      "geometry": {
        "type": "Point",
        "coordinates": [
          -55.251348592230194,
          74.71096997901262
        ]
      }
    },
    {
      "type": "Feature",
      "properties": {
        "norad_id": 30503,
        "name": "FENGYUN 1C DEB",
        "group": "fengyun-1c-debris",
        "lat": -16.851375590050797,
        "lon": 10.463330532155258,
        "alt_km": 840.381960601072,
        "timestamp": "2025-12-15T15:53:20.128718+00:00",
        "meta_object_name": "FENGYUN 1C DEB",
        "meta_object_id": "1999-025AHR",
        "meta_epoch": "2025-12-14T20:51:10.722240",
        "meta_mean_motion": 14.16127165,
        "meta_eccentricity": 0.00082738,
        "meta_inclination": 99.2043,
        "meta_ra_of_asc_node": 192.4592,
        "meta_arg_of_pericenter": 260.1713,
        "meta_mean_anomaly": 215.5111,
        "meta_ephemeris_type": 0,
        "meta_classification_type": "U",
        "meta_norad_cat_id": 30503,
        "meta_element_set_no": 999,
        "meta_rev_at_epoch": 97376,
        "meta_bstar": 0.00029141416,
        "meta_mean_motion_dot": 5.29e-06,
        "meta_mean_motion_ddot": 0,
        "tle_line1": "1 30503U 99025AHR 25348.86887410  .00000529  00000+0  29141-3 0  9995",
        "tle_line2": "2 30503  99.2043 192.4592 0008273 260.1713 215.5111 14.16127165973764"
      },
      "geometry": {
        "type": "Point",
        "coordinates": [
          10.463330532155258,
          -16.851375590050797
        ]
      }
    },
    {
      "type": "Feature",
      "properties": {
        "norad_id": 30504,
        "name": "FENGYUN 1C DEB",
        "group": "fengyun-1c-debris",
        "lat": 79.95399993578133,
        "lon": -80.30804392318528,
        "alt_km": 847.9248585350042,
        "timestamp": "2025-12-15T15:53:20.128729+00:00",
        "meta_object_name": "FENGYUN 1C DEB",
        "meta_object_id": "1999-025AHS",
        "meta_epoch": "2025-12-14T16:21:42.337728",
        "meta_mean_motion": 14.20499742,
        "meta_eccentricity": 0.01122674,
        "meta_inclination": 99.0253,
        "meta_ra_of_asc_node": 34.9028,
        "meta_arg_of_pericenter": 210.8731,
        "meta_mean_anomaly": 274.4655,
        "meta_ephemeris_type": 0,
        "meta_classification_type": "U",
        "meta_norad_cat_id": 30504,
        "meta_element_set_no": 999,
        "meta_rev_at_epoch": 97421,
        "meta_bstar": 0.00058978926,
        "meta_mean_motion_dot": 1.303e-05,
        "meta_mean_motion_ddot": 0,
        "tle_line1": "1 30504U 99025AHS 25348.68174002  .00001303  00000+0  58979-3 0  9994",
        "tle_line2": "2 30504  99.0253  34.9028 0112267 210.8731 274.4655 14.20499742974217"
      },
      "geometry": {
        "type": "Point",
        "coordinates": [
          -80.30804392318528,
          79.95399993578133
        ]
      }
    }
  ]
}